00246    8.47  0.15 K2175 214.13713   96.21427  162.27950   15.62108  0.1091466  0.22282074   2.6946290  0 MPO636063  3432  51 1885-2021 0.55 M-v 3Ek Pan        0000    (246) Asporina           20210427
00247    8.25  0.15 K2175 106.28072   55.35429    0.04999   24.95487  0.2454474  0.21716974   2.7411734  0 MPO636063  2362  63 1885-2021 0.61 M-v 3Ek Pan        0000    (247) Eukrate            20210801
00248   10.27  0.15 K2175   0.31443   11.47296  246.78048    4.06087  0.0657449  0.25385028   2.4703071  0 MPO647011  4084  52 1885-2021 0.40 M-v 3Ek Pan        0000    (248) Lameia             20210908
00249   11.32  0.15 K2175 348.31220   42.04840  334.69020    9.62257  0.2173464  0.26884456   2.3775804  0 MPO647011  3116  39 1885-2021 0.38 M-v 3Ek Pan        0000    (249) Ilse               20210908
00250    7.48  0.15 K2175  15.79378   75.88990   23.81629   12.81775  0.1356376  0.17672648   3.1448623  0 MPO614063  2743  62 1885-2021 0.45 M-v 3Ek Pan        0000    (250) Bettina            20210524
00251    9.94  0.15 K2175 263.24809  287.73715  155.87198   10.54831  0.0941461  0.18033972   3.1027143  0 MPO647011  3409  46 1885-2021 0.42 M-v 3Ek Pan        0000    (251) Sophia             20210907
00252    9.79  0.15 K2175  83.12063  159.38423  201.93981   10.03414  0.0663485  0.17539064   3.1608104  0 MPO647011  3623  53 1885-2021 0.44 M-v 3Ek Pan        0000    (252) Clementina         20210907
00253   10.39  0.15 K2175 221.44639  157.77187  179.53027    6.74088  0.2634183  0.22863507   2.6487491  0 MPO636064  4413  44 1885-2021 0.54 M-v 3Ek Pan        0000    (253) Mathilde           20210801
00254   11.76  0.15 K2175 166.64370  233.09140   28.43457    4.51210  0.1218282  0.30318481   2.1944773  0 MPO647011  3785  42 1886-2021 0.38 M-v 3Ek Pan        0000    (254) Augusta            20210829
00255   10.38  0.15 K2175 291.92484  155.16368   13.58944    9.46331  0.0789196  0.21659922   2.7459847  0 MPO647011  3308  57 1886-2021 0.42 M-v 3Ek Pan        0000    (255) Oppavia            20210907
00256    9.96  0.15 K2175 332.62040   47.46713  182.90867   13.32739  0.0655535  0.18970709   2.9997174  0 MPO647011  3384  47 1886-2021 0.41 M-v 3Ek Pan        0000    (256) Walpurga           20210822
00257    9.47  0.15 K2175 348.26278   31.59895   34.05757    3.61324  0.1117007  0.17905320   3.1175588  0 MPO647011  3640  61 1886-2021 0.46 M-v 3Ek Pan        0000    (257) Silesia            20210908
00258    8.34  0.15 K2175 216.52627  155.63152  207.54129   14.32567  0.2047552  0.23311771   2.6146840  0 MPO647011  3544  68 1886-2021 0.47 M-v 3Ek Pan        0000    (258) Tyche              20210904
00259    7.90  0.15 K2175 103.09525  167.03376   86.79875   10.80927  0.1298493  0.17786136   3.1314704  0 MPO647011  2926  55 1898-2021 0.45 M-v 3Ek Pan        0000    (259) Aletheia           20210907
00260    9.19  0.15 K2175  28.88039  179.88013  164.94320    6.42014  0.1084335  0.15395758   3.4477466  0 MPO647011  3948  60 1906-2021 0.44 M-v 3Ek Pan        0000    (260) Huberta            20210908
00261    9.50  0.15 K2175 173.30086   66.55113   96.61079    3.63395  0.0890062  0.27663275   2.3327435  0 MPO647011  3363  58 1909-2021 0.46 M-v 3Ek Pan        0000    (261) Prymno             20210907
00262   11.33  0.15 K2175 342.80740   26.09455   38.28951    7.66915  0.2112287  0.24170578   2.5523762  0 MPO647011  2906  41 1890-2021 0.40 M-v 3Ek Pan        0000    (262) Valda              20210829
00263   10.29  0.15 K2175 180.04909  162.64017  216.14027    1.32065  0.0782579  0.20100795   2.8862053  0 MPO647011  3977  57 1898-2021 0.44 M-v 3Ek Pan        0000    (263) Dresda             20210828
00264    8.37  0.15 K2175 274.87526  340.20108   49.57925   10.42197  0.1369890  0.21057809   2.7980830  0 MPO647011  2927  56 1893-2021 0.45 M-v 3Ek Pan        0000    (264) Libussa            20210908
00265   11.94  0.15 K2175 196.23882  251.57296  335.52769   25.64976  0.2673327  0.26190848   2.4193740  0 MPO647011  2939  31 1899-2021 0.41 M-v 3Ek Pan        0000    (265) Anna               20210907
00266    8.81  0.15 K2175  69.33499  151.71714  235.83873   13.39852  0.1540151  0.20971138   2.8057871  0 MPO600179  3083  52 1891-2021 0.43 M-v 3Ek Pan        0000    (266) Aline              20210314
00267   10.28  0.15 K2175 350.96965  197.00026   73.73806    6.00302  0.0988301  0.21332691   2.7739947  0 MPO647011  3703  45 1907-2021 0.39 M-v 3Ek Pan        0000    (267) Tirza              20210908
00268    8.42  0.15 K2175 269.60073   68.55740  120.85454    2.44046  0.1367843  0.18121833   3.0926775  0 MPO647011  3778  59 1906-2021 0.45 M-v 3Ek Pan        0000    (268) Adorea             20210908
00269    9.74  0.15 K2175 278.69055  119.67957  156.71198    5.47839  0.2129739  0.23286968   2.6165402  0 MPO636064  3848  53 1890-2021 0.55 M-v 3Ek Pan        0000    (269) Justitia           20210724
00270    8.82  0.15 K2175  43.60178   80.47376  254.32625    2.36760  0.1503368  0.30245459   2.1980080  0 MPO647011  3100  63 1897-2021 0.51 M-v 3Ek Pan        0000    (270) Anahita            20210907
00271    9.89  0.15 K2175 225.35760   57.64873  335.35070    3.53983  0.1043552  0.18943723   3.0025655  0 MPO647011  3395  58 1897-2021 0.45 M-v 3Ek Pan        0000    (271) Penthesilea        20210904
00272   10.68  0.15 K2175 326.16179   69.02019   37.31480    4.43244  0.0284505  0.21295685   2.7772074  0 MPO647011  3338  50 1918-2021 0.41 M-v 3Ek Pan        0000    (272) Antonia            20210903
00273   10.51  0.15 K2175 246.43906  121.13638  158.91155   20.45081  0.1599392  0.26578875   2.3957692  0 MPO636064  3435  40 1910-2021 0.49 M-v 3Ek Pan        0007    (273) Atropos            20210618
00274   10.04  0.15 K2175  18.89479  119.91619   92.78989    3.67750  0.1188661  0.18563453   3.0434316  0 MPO647011  4002  60 1893-2021 0.44 M-v 3Ek Pan        0000    (274) Philagoria         20210904
00275    8.91  0.15 K2175 326.24775   39.49981  134.04121    4.76415  0.1635427  0.21362108   2.7714474  0 MPO600179  3618  58 1891-2021 0.46 M-v 3Ek Pan        0000    (275) Sapientia          20210322
00276    8.68  0.15 K2175 167.40177  265.17046  211.13429   21.60947  0.0664106  0.17905793   3.1175039  0 MPO647011  3467  53 1899-2021 0.41 M-v 3Ek Pan        0000    (276) Adelheid           20210908
00277    9.90  0.15 K2175 269.17459  136.90971  231.24385    1.16277  0.0925326  0.20125770   2.8838171  0 MPO647011  3494  50 1899-2021 0.42 M-v 3Ek Pan        0000    (277) Elvira             20210908
00278    9.42  0.15 K2175  72.09016  140.03933   61.98581    7.81553  0.1315859  0.21536678   2.7564508  0 MPO647011  3642  54 1890-2021 0.41 M-v 3Ek Pan        0000    (278) Paulina            20210908
00279    8.52  0.15 K2175 278.25760   26.07052   71.88639    2.33450  0.0435170  0.11182225   4.2669469  0 MPO647011  3676  64 1890-2021 0.43 M-v 3Ek Pan        0000    (279) Thule              20210907
00280   11.03  0.15 K2175  44.95466   89.34435    9.85320    7.43939  0.1101732  0.19524422   2.9427312  0 MPO636064  3509  39 1890-2021 0.53 M-v 3Ek Pan        0000    (280) Philia             20210611
00281   11.90  0.15 K2175 350.21139   16.72687   31.34382    5.30219  0.1315323  0.30462294   2.1875650  0 MPO647011  3467  38 1890-2021 0.37 M-v 3Ek Pan        0000    (281) Lucretia           20210908
00282   11.03  0.15 K2175  52.24215  296.92542  144.88271    9.03674  0.0810854  0.27545223   2.3394038  0 MPO636064  3366  45 1898-2021 0.50 M-v 3Ek Pan        0000    (282) Clorinde           20210607
00283    8.65  0.15 K2175  98.73557   55.40863  303.90211    7.98919  0.1443411  0.18506231   3.0497020  0 MPO600179  3396  58 1894-2021 0.45 M-v 3Ek Pan        0000    (283) Emma               20210318
00284   10.24  0.15 K2175 129.93023   57.97986  233.69821    8.05527  0.2219014  0.27210192   2.3585675  0 MPO647011  3566  47 1893-2021 0.39 M-v 3Ek Pan        0000    (284) Amalia             20210902
00285   10.93  0.15 K2175 104.84597   14.34848  311.22922   17.61630  0.2045979  0.18173211   3.0868458  0 MPO647011  4015  30 1911-2021 0.52 M-v 3Ek Pan        0000    (285) Regina             20210908
00286    9.09  0.15 K2175   3.76961  209.66331  148.93111   17.94297  0.0248465  0.17269273   3.1936453  0 MPO647011  3477  46 1898-2021 0.43 M-v 3Ek Pan        0000    (286) Iclea              20210907
00287    8.25  0.15 K2175 258.88932  119.43619  142.31977   10.03557  0.0228182  0.27302271   2.3532615  0 MPO636064  3703  68 1895-2021 0.65 M-v 3Ek Pan        0000    (287) Nephthys           20210705
00288    9.81  0.15 K2175 203.26821   84.60185  120.10477    4.33837  0.2058476  0.21507179   2.7589707  0 MPO647011  3602  69 1891-2021 0.42 M-v 3Ek Pan        0000    (288) Glauke             20210908
00289    9.55  0.15 K2175 106.48362  190.51766  181.93131    6.67929  0.2015366  0.20200504   2.8767001  0 MPO636064  3728  54 1906-2021 0.54 M-v 3Ek Pan        0000    (289) Nenetta            20210616
00290   12.03  0.15 K2175 307.70821  105.50269   10.33621   22.33677  0.2576905  0.27590759   2.3368291  0 MPO647011  2790  28 1915-2021 0.57 M-v 3Ek Pan        0000    (290) Bruna              20210907
00291   11.55  0.15 K2175 290.17673  332.27893  161.58945    1.85706  0.0928609  0.29764870   2.2216044  0 MPO647011  3989  50 1891-2021 0.38 M-v 3Ek Pan        0000    (291) Alice              20210829
00292    9.99  0.15 K2175 108.98860  285.78536   43.48809   14.88614  0.0330987  0.24498944   2.5295182  0 MPO647011  3593  45 1891-2021 0.49 M-v 3Ek Pan        0000    (292) Ludovica           20210908
00293   10.23  0.15 K2175 114.61500   86.90578   61.29657   15.58076  0.1055368  0.20373024   2.8604370  0 MPO647011  2977  37 1909-2021 0.38 M-v 3Ek Pan        0000    (293) Brasilia           20210904
00294   10.23  0.15 K2175 170.41626  186.15086  135.70827    6.26524  0.2332318  0.17575358   3.1564574  0 MPO636064  3912  49 1906-2021 0.56 M-v 3Ek Pan        0000    (294) Felicia            20210608
